AQUA                    
1 27424U 02022A   26192.95848567  .00000405  00000+0  90228-4 0  9990
2 27424  98.4293 162.7390 0000830 107.2850 288.6762 14.62194286286893
ARIRANG-2 (KOMPSAT-2)   
1 29268U 06031A   26192.97363617  .00000299  00000+0  64671-4 0  9996
2 29268  97.8315  16.2223 0014543   1.2267 158.5301 14.64675079 65107
ARIRANG-3 (KOMPSAT-3)   
1 38338U 12025B   26192.94125457  .00000214  00000+0  51617-4 0  9992
2 38338  98.1183 149.9761 0006401  47.3930 312.7811 14.62227433754969
ARIRANG-5 (KOMPSAT-5)   
1 39227U 13042A   26192.97363001  .00001070  00000+0  80695-4 0  9991
2 39227  97.6217  19.3267 0005595  66.9000 293.2816 15.04523462707580
ALOS-2                  
1 39766U 14029A   26193.02805944  .00000805  00000+0  11465-3 0  9992
2 39766  97.9229 289.8370 0001549  98.6500 261.4887 14.79469002655256
ASNARO                  
1 40298U 14070A   26192.98404787  .00004143  00000+0  19652-3 0  9999
2 40298  97.3451 268.4314 0006926  96.9476 263.2547 15.19798679647778
ALSAT-1B                
1 41785U 16059C   26192.97870315  .00000040  00000+0  13744-4 0  9992
2 41785  97.7758 200.6724 0010099 138.9874 221.2096 14.72292271524224
ARKTIKA-M 1             
1 47719U 21016A   26188.42887598 -.00000257  00000+0  00000+0 0  9997
2 47719  63.2524  54.6812 7295086 270.0380  14.5466  2.00614486 39194
ARKTIKA-M 2             
1 58584U 23198A   26191.19028483  .00000186  00000+0  00000+0 0  9990
2 58584  63.2187 151.7914 6909064 267.3543  18.7503  2.00608615 18787
ALOS-4 (DAICHI-4)       
1 60182U 24123A   26192.91214985  .00000777  00000+0  11091-3 0  9993
2 60182  97.9220 289.7332 0001601  97.6239 262.5154 14.79476168109532
