{
 "generated_at": "2026-07-12T07:29:19Z",
 "sources": [
  {
   "name": "CelesTrak",
   "url": "https://celestrak.org/NORAD/elements/",
   "license": "frei verfügbar; Attribution. Ursprünglich USSPACECOM/Space-Track."
  },
  {
   "name": "GCAT (J. McDowell, planet4589.org)",
   "url": "https://planet4589.org/space/gcat/",
   "license": "CC-BY 4.0"
  }
 ],
 "satellites": [
  {
   "norad": 39766,
   "name": "ALOS-2",
   "intl": "2014-029A",
   "group": "resource",
   "gcat": {
    "class": "C",
    "category": "IMG",
    "owner": "JAXA",
    "state": "J"
   },
   "omm": {
    "OBJECT_NAME": "ALOS-2",
    "OBJECT_ID": "2014-029A",
    "EPOCH": "2026-07-12T00:40:24.335616",
    "MEAN_MOTION": 14.79469002,
    "ECCENTRICITY": 0.0001549,
    "INCLINATION": 97.9229,
    "RA_OF_ASC_NODE": 289.837,
    "ARG_OF_PERICENTER": 98.65,
    "MEAN_ANOMALY": 261.4887,
    "EPHEMERIS_TYPE": 0,
    "CLASSIFICATION_TYPE": "U",
    "NORAD_CAT_ID": 39766,
    "ELEMENT_SET_NO": 999,
    "REV_AT_EPOCH": 65525,
    "BSTAR": 0.00011465,
    "MEAN_MOTION_DOT": 0.00000805,
    "MEAN_MOTION_DDOT": 0
   }
  },
  {
   "norad": 60182,
   "name": "ALOS-4 (DAICHI-4)",
   "intl": "2024-123A",
   "group": "resource",
   "gcat": {
    "class": "C",
    "category": "IMG",
    "owner": "JAXA",
    "state": "J"
   },
   "omm": {
    "OBJECT_NAME": "ALOS-4 (DAICHI-4)",
    "OBJECT_ID": "2024-123A",
    "EPOCH": "2026-07-11T21:53:29.747040",
    "MEAN_MOTION": 14.79476168,
    "ECCENTRICITY": 0.00016013,
    "INCLINATION": 97.922,
    "RA_OF_ASC_NODE": 289.7332,
    "ARG_OF_PERICENTER": 97.6239,
    "MEAN_ANOMALY": 262.5154,
    "EPHEMERIS_TYPE": 0,
    "CLASSIFICATION_TYPE": "U",
    "NORAD_CAT_ID": 60182,
    "ELEMENT_SET_NO": 999,
    "REV_AT_EPOCH": 10953,
    "BSTAR": 0.00011091307,
    "MEAN_MOTION_DOT": 0.00000777,
    "MEAN_MOTION_DDOT": 0
   }
  },
  {
   "norad": 41785,
   "name": "ALSAT-1B",
   "intl": "2016-059C",
   "group": "resource",
   "gcat": {
    "class": "C",
    "category": "IMG",
    "owner": "ASAL",
    "state": "DZ"
   },
   "omm": {
    "OBJECT_NAME": "ALSAT-1B",
    "OBJECT_ID": "2016-059C",
    "EPOCH": "2026-07-11T23:29:19.952160",
    "MEAN_MOTION": 14.72292271,
    "ECCENTRICITY": 0.00100992,
    "INCLINATION": 97.7758,
    "RA_OF_ASC_NODE": 200.6724,
    "ARG_OF_PERICENTER": 138.9874,
    "MEAN_ANOMALY": 221.2096,
    "EPHEMERIS_TYPE": 0,
    "CLASSIFICATION_TYPE": "U",
    "NORAD_CAT_ID": 41785,
    "ELEMENT_SET_NO": 999,
    "REV_AT_EPOCH": 52422,
    "BSTAR": 0.000013743626,
    "MEAN_MOTION_DOT": 4e-7,
    "MEAN_MOTION_DDOT": 0
   }
  },
  {
   "norad": 27424,
   "name": "AQUA",
   "intl": "2002-022A",
   "group": "resource",
   "gcat": {
    "class": "C",
    "category": "IMG",
    "owner": "GSFC",
    "state": "US"
   },
   "omm": {
    "OBJECT_NAME": "AQUA",
    "OBJECT_ID": "2002-022A",
    "EPOCH": "2026-07-11T23:00:13.161888",
    "MEAN_MOTION": 14.62194286,
    "ECCENTRICITY": 0.00008308,
    "INCLINATION": 98.4293,
    "RA_OF_ASC_NODE": 162.739,
    "ARG_OF_PERICENTER": 107.285,
    "MEAN_ANOMALY": 288.6762,
    "EPHEMERIS_TYPE": 0,
    "CLASSIFICATION_TYPE": "U",
    "NORAD_CAT_ID": 27424,
    "ELEMENT_SET_NO": 999,
    "REV_AT_EPOCH": 28689,
    "BSTAR": 0.000090228344,
    "MEAN_MOTION_DOT": 0.00000405,
    "MEAN_MOTION_DDOT": 0
   }
  },
  {
   "norad": 29268,
   "name": "ARIRANG-2 (KOMPSAT-2)",
   "intl": "2006-031A",
   "group": "resource",
   "gcat": {
    "class": "C",
    "category": "IMG",
    "owner": "KARI",
    "state": "KR"
   },
   "omm": {
    "OBJECT_NAME": "ARIRANG-2 (KOMPSAT-2)",
    "OBJECT_ID": "2006-031A",
    "EPOCH": "2026-07-11T23:22:02.165088",
    "MEAN_MOTION": 14.64675079,
    "ECCENTRICITY": 0.00145431,
    "INCLINATION": 97.8315,
    "RA_OF_ASC_NODE": 16.2223,
    "ARG_OF_PERICENTER": 1.2267,
    "MEAN_ANOMALY": 158.5301,
    "EPHEMERIS_TYPE": 0,
    "CLASSIFICATION_TYPE": "U",
    "NORAD_CAT_ID": 29268,
    "ELEMENT_SET_NO": 999,
    "REV_AT_EPOCH": 6510,
    "BSTAR": 0.000064671415,
    "MEAN_MOTION_DOT": 0.00000299,
    "MEAN_MOTION_DDOT": 0
   }
  },
  {
   "norad": 38338,
   "name": "ARIRANG-3 (KOMPSAT-3)",
   "intl": "2012-025B",
   "group": "resource",
   "gcat": {
    "class": "C",
    "category": "IMG",
    "owner": "KARI",
    "state": "KR"
   },
   "omm": {
    "OBJECT_NAME": "ARIRANG-3 (KOMPSAT-3)",
    "OBJECT_ID": "2012-025B",
    "EPOCH": "2026-07-11T22:35:24.394848",
    "MEAN_MOTION": 14.62227433,
    "ECCENTRICITY": 0.00064016,
    "INCLINATION": 98.1183,
    "RA_OF_ASC_NODE": 149.9761,
    "ARG_OF_PERICENTER": 47.393,
    "MEAN_ANOMALY": 312.7811,
    "EPHEMERIS_TYPE": 0,
    "CLASSIFICATION_TYPE": "U",
    "NORAD_CAT_ID": 38338,
    "ELEMENT_SET_NO": 999,
    "REV_AT_EPOCH": 75496,
    "BSTAR": 0.000051616944,
    "MEAN_MOTION_DOT": 0.00000214,
    "MEAN_MOTION_DDOT": 0
   }
  },
  {
   "norad": 39227,
   "name": "ARIRANG-5 (KOMPSAT-5)",
   "intl": "2013-042A",
   "group": "resource",
   "gcat": {
    "class": "C",
    "category": "IMG-R",
    "owner": "KARI",
    "state": "KR"
   },
   "omm": {
    "OBJECT_NAME": "ARIRANG-5 (KOMPSAT-5)",
    "OBJECT_ID": "2013-042A",
    "EPOCH": "2026-07-11T23:22:01.632864",
    "MEAN_MOTION": 15.04523462,
    "ECCENTRICITY": 0.00055959,
    "INCLINATION": 97.6217,
    "RA_OF_ASC_NODE": 19.3267,
    "ARG_OF_PERICENTER": 66.9,
    "MEAN_ANOMALY": 293.2816,
    "EPHEMERIS_TYPE": 0,
    "CLASSIFICATION_TYPE": "U",
    "NORAD_CAT_ID": 39227,
    "ELEMENT_SET_NO": 999,
    "REV_AT_EPOCH": 70758,
    "BSTAR": 0.000080694708,
    "MEAN_MOTION_DOT": 0.0000107,
    "MEAN_MOTION_DDOT": 0
   }
  },
  {
   "norad": 47719,
   "name": "ARKTIKA-M 1",
   "intl": "2021-016A",
   "group": "weather",
   "gcat": {
    "class": "C",
    "category": "MET",
    "owner": "ROSK",
    "state": "RU"
   },
   "omm": {
    "OBJECT_NAME": "ARKTIKA-M 1",
    "OBJECT_ID": "2021-016A",
    "EPOCH": "2026-07-07T10:17:34.884672",
    "MEAN_MOTION": 2.00614486,
    "ECCENTRICITY": 0.72950864,
    "INCLINATION": 63.2524,
    "RA_OF_ASC_NODE": 54.6812,
    "ARG_OF_PERICENTER": 270.038,
    "MEAN_ANOMALY": 14.5466,
    "EPHEMERIS_TYPE": 0,
    "CLASSIFICATION_TYPE": "U",
    "NORAD_CAT_ID": 47719,
    "ELEMENT_SET_NO": 999,
    "REV_AT_EPOCH": 3919,
    "BSTAR": 0,
    "MEAN_MOTION_DOT": -0.00000257,
    "MEAN_MOTION_DDOT": 0
   }
  },
  {
   "norad": 58584,
   "name": "ARKTIKA-M 2",
   "intl": "2023-198A",
   "group": "weather",
   "gcat": {
    "class": "C",
    "category": "MET",
    "owner": "ROSK",
    "state": "RU"
   },
   "omm": {
    "OBJECT_NAME": "ARKTIKA-M 2",
    "OBJECT_ID": "2023-198A",
    "EPOCH": "2026-07-10T04:34:00.609312",
    "MEAN_MOTION": 2.00608615,
    "ECCENTRICITY": 0.69090643,
    "INCLINATION": 63.2187,
    "RA_OF_ASC_NODE": 151.7914,
    "ARG_OF_PERICENTER": 267.3543,
    "MEAN_ANOMALY": 18.7503,
    "EPHEMERIS_TYPE": 0,
    "CLASSIFICATION_TYPE": "U",
    "NORAD_CAT_ID": 58584,
    "ELEMENT_SET_NO": 999,
    "REV_AT_EPOCH": 1878,
    "BSTAR": 0,
    "MEAN_MOTION_DOT": 0.00000186,
    "MEAN_MOTION_DDOT": 0
   }
  },
  {
   "norad": 40298,
   "name": "ASNARO",
   "intl": "2014-070A",
   "group": "resource",
   "gcat": {
    "class": null,
    "category": "IMG",
    "owner": "JSS",
    "state": "J"
   },
   "omm": {
    "OBJECT_NAME": "ASNARO",
    "OBJECT_ID": "2014-070A",
    "EPOCH": "2026-07-11T23:37:01.735968",
    "MEAN_MOTION": 15.19798679,
    "ECCENTRICITY": 0.00069268,
    "INCLINATION": 97.3451,
    "RA_OF_ASC_NODE": 268.4314,
    "ARG_OF_PERICENTER": 96.9476,
    "MEAN_ANOMALY": 263.2547,
    "EPHEMERIS_TYPE": 0,
    "CLASSIFICATION_TYPE": "U",
    "NORAD_CAT_ID": 40298,
    "ELEMENT_SET_NO": 999,
    "REV_AT_EPOCH": 64777,
    "BSTAR": 0.00019651871,
    "MEAN_MOTION_DOT": 0.00004143,
    "MEAN_MOTION_DDOT": 0
   }
  }
 ]
}
